[{"OBJECT_NAME":"COSMOS 1953","OBJECT_ID":"1988-050A","EPOCH":"2026-03-04T07:44:49.851744","MEAN_MOTION":15.2841128,"ECCENTRICITY":0.00122075,"INCLINATION":82.5119,"RA_OF_ASC_NODE":163.6431,"ARG_OF_PERICENTER":139.8688,"MEAN_ANOMALY":220.3455,"EPHEMERIS_TYPE":0,"CLASSIFICATION_TYPE":"U","NORAD_CAT_ID":19210,"ELEMENT_SET_NO":999,"REV_AT_EPOCH":3696,"BSTAR":0.00048174855,"MEAN_MOTION_DOT":0.0001339,"MEAN_MOTION_DDOT":0},{"OBJECT_NAME":"SL-8 R/B","OBJECT_ID":"1988-053B","EPOCH":"2026-03-04T12:28:10.447104","MEAN_MOTION":14.38912365,"ECCENTRICITY":0.00213204,"INCLINATION":74.0468,"RA_OF_ASC_NODE":121.9967,"ARG_OF_PERICENTER":302.0399,"MEAN_ANOMALY":160.0341,"EPHEMERIS_TYPE":0,"CLASSIFICATION_TYPE":"U","NORAD_CAT_ID":19257,"ELEMENT_SET_NO":999,"REV_AT_EPOCH":97585,"BSTAR":0.00012969887,"MEAN_MOTION_DOT":3.74e-6,"MEAN_MOTION_DDOT":0},{"OBJECT_NAME":"COSMOS 1975","OBJECT_ID":"1988-093A","EPOCH":"2026-03-04T05:22:31.412352","MEAN_MOTION":15.27974687,"ECCENTRICITY":0.00116956,"INCLINATION":82.5197,"RA_OF_ASC_NODE":123.1719,"ARG_OF_PERICENTER":182.1757,"MEAN_ANOMALY":177.9433,"EPHEMERIS_TYPE":0,"CLASSIFICATION_TYPE":"U","NORAD_CAT_ID":19573,"ELEMENT_SET_NO":999,"REV_AT_EPOCH":1857,"BSTAR":0.00042076177,"MEAN_MOTION_DOT":0.0001154,"MEAN_MOTION_DDOT":0},{"OBJECT_NAME":"SL-14 R/B","OBJECT_ID":"1988-093B","EPOCH":"2026-03-04T16:46:38.986176","MEAN_MOTION":14.85649462,"ECCENTRICITY":0.0022059,"INCLINATION":82.5295,"RA_OF_ASC_NODE":46.729,"ARG_OF_PERICENTER":57.11,"MEAN_ANOMALY":115.5679,"EPHEMERIS_TYPE":0,"CLASSIFICATION_TYPE":"U","NORAD_CAT_ID":19574,"ELEMENT_SET_NO":999,"REV_AT_EPOCH":27,"BSTAR":9.01e-5,"MEAN_MOTION_DOT":8.08e-6,"MEAN_MOTION_DDOT":0},{"OBJECT_NAME":"SL-16 R/B","OBJECT_ID":"1988-102B","EPOCH":"2026-03-04T11:11:05.320320","MEAN_MOTION":14.16149548,"ECCENTRICITY":0.00136195,"INCLINATION":71,"RA_OF_ASC_NODE":162.4875,"ARG_OF_PERICENTER":9.5875,"MEAN_ANOMALY":350.5505,"EPHEMERIS_TYPE":0,"CLASSIFICATION_TYPE":"U","NORAD_CAT_ID":19650,"ELEMENT_SET_NO":999,"REV_AT_EPOCH":92615,"BSTAR":4.730101e-5,"MEAN_MOTION_DOT":4.6e-7,"MEAN_MOTION_DDOT":0},{"OBJECT_NAME":"INTERCOSMOS 24","OBJECT_ID":"1989-080A","EPOCH":"2026-03-04T19:09:52.258464","MEAN_MOTION":12.59549492,"ECCENTRICITY":0.1186786,"INCLINATION":82.6032,"RA_OF_ASC_NODE":107.5896,"ARG_OF_PERICENTER":304.1843,"MEAN_ANOMALY":45.2203,"EPHEMERIS_TYPE":0,"CLASSIFICATION_TYPE":"U","NORAD_CAT_ID":20261,"ELEMENT_SET_NO":999,"REV_AT_EPOCH":66618,"BSTAR":0.00028317,"MEAN_MOTION_DOT":9.52e-6,"MEAN_MOTION_DDOT":0},{"OBJECT_NAME":"SL-14 R/B","OBJECT_ID":"1989-080C","EPOCH":"2026-03-04T18:06:39.837600","MEAN_MOTION":12.50486576,"ECCENTRICITY":0.1230384,"INCLINATION":82.5971,"RA_OF_ASC_NODE":176.3533,"ARG_OF_PERICENTER":196.0271,"MEAN_ANOMALY":159.8366,"EPHEMERIS_TYPE":0,"CLASSIFICATION_TYPE":"U","NORAD_CAT_ID":20262,"ELEMENT_SET_NO":999,"REV_AT_EPOCH":65953,"BSTAR":0.00025943,"MEAN_MOTION_DOT":8.71e-6,"MEAN_MOTION_DDOT":0},{"OBJECT_NAME":"DELTA 1 R/B","OBJECT_ID":"1989-089B","EPOCH":"2026-03-04T12:23:53.837376","MEAN_MOTION":14.50658344,"ECCENTRICITY":0.0070149,"INCLINATION":97.0709,"RA_OF_ASC_NODE":271.778,"ARG_OF_PERICENTER":138.087,"MEAN_ANOMALY":222.5728,"EPHEMERIS_TYPE":0,"CLASSIFICATION_TYPE":"U","NORAD_CAT_ID":20323,"ELEMENT_SET_NO":999,"REV_AT_EPOCH":89498,"BSTAR":0.00013001,"MEAN_MOTION_DOT":4.92e-6,"MEAN_MOTION_DDOT":0},{"OBJECT_NAME":"ARIANE 40 R/B","OBJECT_ID":"1990-005H","EPOCH":"2026-03-04T04:26:01.816800","MEAN_MOTION":14.39866455,"ECCENTRICITY":0.00095186,"INCLINATION":98.3095,"RA_OF_ASC_NODE":124.01,"ARG_OF_PERICENTER":215.6942,"MEAN_ANOMALY":144.3611,"EPHEMERIS_TYPE":0,"CLASSIFICATION_TYPE":"U","NORAD_CAT_ID":20443,"ELEMENT_SET_NO":999,"REV_AT_EPOCH":89201,"BSTAR":0.00014117547,"MEAN_MOTION_DOT":4.01e-6,"MEAN_MOTION_DDOT":0},{"OBJECT_NAME":"DELTA 2 R/B(1)","OBJECT_ID":"1990-008B","EPOCH":"2026-03-04T18:05:34.724832","MEAN_MOTION":15.55228084,"ECCENTRICITY":0.0086505,"INCLINATION":35.6042,"RA_OF_ASC_NODE":207.2295,"ARG_OF_PERICENTER":213.0642,"MEAN_ANOMALY":146.4665,"EPHEMERIS_TYPE":0,"CLASSIFICATION_TYPE":"U","NORAD_CAT_ID":20453,"ELEMENT_SET_NO":999,"REV_AT_EPOCH":92536,"BSTAR":0.001041,"MEAN_MOTION_DOT":0.00086998,"MEAN_MOTION_DDOT":0},{"OBJECT_NAME":"COSMOS 2058","OBJECT_ID":"1990-010A","EPOCH":"2026-03-04T10:01:14.617056","MEAN_MOTION":15.1126582,"ECCENTRICITY":0.00097689,"INCLINATION":82.4667,"RA_OF_ASC_NODE":52.6218,"ARG_OF_PERICENTER":0.8805,"MEAN_ANOMALY":359.244,"EPHEMERIS_TYPE":0,"CLASSIFICATION_TYPE":"U","NORAD_CAT_ID":20465,"ELEMENT_SET_NO":999,"REV_AT_EPOCH":94144,"BSTAR":0.00038342848,"MEAN_MOTION_DOT":6.484e-5,"MEAN_MOTION_DDOT":0},{"OBJECT_NAME":"SL-14 R/B","OBJECT_ID":"1990-010B","EPOCH":"2026-03-04T02:07:54.359040","MEAN_MOTION":14.8356347,"ECCENTRICITY":0.00188916,"INCLINATION":82.4992,"RA_OF_ASC_NODE":272.6512,"ARG_OF_PERICENTER":321.9134,"MEAN_ANOMALY":38.0744,"EPHEMERIS_TYPE":0,"CLASSIFICATION_TYPE":"U","NORAD_CAT_ID":20466,"ELEMENT_SET_NO":999,"REV_AT_EPOCH":92765,"BSTAR":6.4601394e-5,"MEAN_MOTION_DOT":5.57e-6,"MEAN_MOTION_DDOT":0},{"OBJECT_NAME":"SL-14 R/B","OBJECT_ID":"1990-018B","EPOCH":"2026-03-04T12:09:08.436960","MEAN_MOTION":14.8213867,"ECCENTRICITY":0.00176063,"INCLINATION":82.5193,"RA_OF_ASC_NODE":227.9347,"ARG_OF_PERICENTER":107.8051,"MEAN_ANOMALY":252.5086,"EPHEMERIS_TYPE":0,"CLASSIFICATION_TYPE":"U","NORAD_CAT_ID":20511,"ELEMENT_SET_NO":999,"REV_AT_EPOCH":92181,"BSTAR":9.4251434e-5,"MEAN_MOTION_DOT":7.75e-6,"MEAN_MOTION_DDOT":0},{"OBJECT_NAME":"HST","OBJECT_ID":"1990-037B","EPOCH":"2026-03-04T03:14:53.334528","MEAN_MOTION":15.29378725,"ECCENTRICITY":0.00017249,"INCLINATION":28.4703,"RA_OF_ASC_NODE":77.887,"ARG_OF_PERICENTER":70.3509,"MEAN_ANOMALY":289.7272,"EPHEMERIS_TYPE":0,"CLASSIFICATION_TYPE":"U","NORAD_CAT_ID":20580,"ELEMENT_SET_NO":999,"REV_AT_EPOCH":77246,"BSTAR":0.0003438249,"MEAN_MOTION_DOT":0.00010319,"MEAN_MOTION_DDOT":0},{"OBJECT_NAME":"SL-16 R/B","OBJECT_ID":"1990-046B","EPOCH":"2026-03-04T02:42:03.513888","MEAN_MOTION":14.15014486,"ECCENTRICITY":0.0016154,"INCLINATION":71,"RA_OF_ASC_NODE":309.6278,"ARG_OF_PERICENTER":307.0897,"MEAN_ANOMALY":52.8748,"EPHEMERIS_TYPE":0,"CLASSIFICATION_TYPE":"U","NORAD_CAT_ID":20625,"ELEMENT_SET_NO":999,"REV_AT_EPOCH":84760,"BSTAR":-6.8150656e-5,"MEAN_MOTION_DOT":-1.8e-6,"MEAN_MOTION_DDOT":0},{"OBJECT_NAME":"COSMOS 2084","OBJECT_ID":"1990-055A","EPOCH":"2026-03-04T19:22:25.262112","MEAN_MOTION":15.05615913,"ECCENTRICITY":0.001787,"INCLINATION":62.7926,"RA_OF_ASC_NODE":352.2294,"ARG_OF_PERICENTER":188.8404,"MEAN_ANOMALY":171.2385,"EPHEMERIS_TYPE":0,"CLASSIFICATION_TYPE":"U","NORAD_CAT_ID":20663,"ELEMENT_SET_NO":999,"REV_AT_EPOCH":93558,"BSTAR":0.00029188,"MEAN_MOTION_DOT":4.045e-5,"MEAN_MOTION_DDOT":0},{"OBJECT_NAME":"SL-6 R/B(2)","OBJECT_ID":"1990-055D","EPOCH":"2026-03-04T14:00:30.706272","MEAN_MOTION":15.03565724,"ECCENTRICITY":0.0023967,"INCLINATION":62.7817,"RA_OF_ASC_NODE":271.2152,"ARG_OF_PERICENTER":345.7643,"MEAN_ANOMALY":14.2778,"EPHEMERIS_TYPE":0,"CLASSIFICATION_TYPE":"U","NORAD_CAT_ID":20666,"ELEMENT_SET_NO":999,"REV_AT_EPOCH":93742,"BSTAR":0.00021563,"MEAN_MOTION_DOT":2.776e-5,"MEAN_MOTION_DDOT":0}]
